[{"OBJECT_NAME":"STARLINK-31900","OBJECT_ID":"2024-106W","EPOCH":"2026-03-09T23:56:30.971616","MEAN_MOTION":15.27581578,"ECCENTRICITY":0.00015774,"INCLINATION":43.0024,"RA_OF_ASC_NODE":330.459,"ARG_OF_PERICENTER":255.2584,"MEAN_ANOMALY":104.8093,"EPHEMERIS_TYPE":0,"CLASSIFICATION_TYPE":"U","NORAD_CAT_ID":59942,"ELEMENT_SET_NO":999,"REV_AT_EPOCH":10057,"BSTAR":-5.682209e-5,"MEAN_MOTION_DOT":-1.826e-5,"MEAN_MOTION_DDOT":0},{"OBJECT_NAME":"FENGYUN 1C DEB","OBJECT_ID":"1999-025FBF","EPOCH":"2026-03-06T07:33:49.292640","MEAN_MOTION":15.04395515,"ECCENTRICITY":0.01189701,"INCLINATION":98.9505,"RA_OF_ASC_NODE":84.7158,"ARG_OF_PERICENTER":75.0888,"MEAN_ANOMALY":286.3472,"EPHEMERIS_TYPE":0,"CLASSIFICATION_TYPE":"U","NORAD_CAT_ID":47029,"ELEMENT_SET_NO":999,"REV_AT_EPOCH":4330,"BSTAR":0.0027080259,"MEAN_MOTION_DOT":0.00044409,"MEAN_MOTION_DDOT":0}]
